[
    {
        "Altitude(m)": 605459.0489864993,
        "Argument of Periapsis(deg)": 0.0,
        "Eccentricity": 0.0,
        "Inclination(deg)": 60.0,
        "Latitude(deg)": 27.988279552529015,
        "Longitude(deg)": 32.79853231101942,
        "Mean Anomaly(deg)": 32.727299999999985,
        "RAAN(deg)": 114.99999999999999,
        "Satellite Name": "Test1 508",
        "Satellite Number": 508,
        "Semi-Major Axis(m)": 6980739.136638005,
        "Time(s)": 0
    },
    {
        "Altitude(m)": 605535.8404401942,
        "Argument of Periapsis(deg)": 0.00010418945913296404,
        "Eccentricity": 0.0,
        "Inclination(deg)": 60.0,
        "Latitude(deg)": 28.501409675172372,
        "Longitude(deg)": 33.15547646993808,
        "Mean Anomaly(deg)": 33.34740614546184,
        "RAAN(deg)": 114.99957995086024,
        "Satellite Name": "Test1 508",
        "Satellite Number": 508,
        "Semi-Major Axis(m)": 6980739.136638005,
        "Time(s)": 10
    }
]